{"type": "FeatureCollection", "features": [ {"type": "Feature", "properties": {"norad_id": 34400, "name": "COSMOS 2251 DEB", "group": "cosmos-2251-debris", "lat": 70.90653186806176, "lon": 126.70168401242505, "alt_km": 389.853089100553, "timestamp": "2025-12-21T22:41:41.853241+00:00", "meta": {"OBJECT_NAME": "COSMOS 2251 DEB", "OBJECT_ID": "1993-036QR", "EPOCH": "2025-12-21T00:40:39.193824", "MEAN_MOTION": 15.56985162, "ECCENTRICITY": 0.00032859, "INCLINATION": 73.9624, "RA_OF_ASC_NODE": 4.9486, "ARG_OF_PERICENTER": 240.2515, "MEAN_ANOMALY": 119.8374, "EPHEMERIS_TYPE": 0, "CLASSIFICATION_TYPE": "U", "NORAD_CAT_ID": 34400, "ELEMENT_SET_NO": 999, "REV_AT_EPOCH": 90103, "BSTAR": 0.0026155724, "MEAN_MOTION_DOT": 0.00193456, "MEAN_MOTION_DDOT": 0}, "tle": {"line1": "1 34400U 93036QR  25355.02823141  .00193456  00000+0  26156-2 0  9992", "line2": "2 34400  73.9624   4.9486 0003285 240.2515 119.8374 15.56985162901036"}}, "geometry": {"type": "Point", "coordinates": [126.70168401242505, 70.90653186806176]}}, {"type": "Feature", "properties": {"norad_id": 34409, "name": "COSMOS 2251 DEB", "group": "cosmos-2251-debris", "lat": 19.8493548287214, "lon": -64.72577131536194, "alt_km": 645.6348911784144, "timestamp": "2025-12-21T22:41:41.853251+00:00", "meta": {"OBJECT_NAME": "COSMOS 2251 DEB", "OBJECT_ID": "1993-036RA", "EPOCH": "2025-12-21T06:49:42.703392", "MEAN_MOTION": 14.58046612, "ECCENTRICITY": 0.0080244, "INCLINATION": 74.0636, "RA_OF_ASC_NODE": 290.6088, "ARG_OF_PERICENTER": 2.6981, "MEAN_ANOMALY": 149.1077, "EPHEMERIS_TYPE": 0, "CLASSIFICATION_TYPE": "U", "NORAD_CAT_ID": 34409, "ELEMENT_SET_NO": 999, "REV_AT_EPOCH": 89317, "BSTAR": 0.00019904, "MEAN_MOTION_DOT": 9.25e-06, "MEAN_MOTION_DDOT": 0}, "tle": {"line1": "1 34409U 93036RA  25355.28452203  .00000925  00000+0  19904-3 0  9998", "line2": "2 34409  74.0636 290.6088 0080244   2.6981 149.1077 14.58046612893179"}}, "geometry": {"type": "Point", "coordinates": [-64.72577131536194, 19.8493548287214]}}, {"type": "Feature", "properties": {"norad_id": 34410, "name": "COSMOS 2251 DEB", "group": "cosmos-2251-debris", "lat": -64.84144259298513, "lon": -156.31547047645154, "alt_km": 526.7550063133885, "timestamp": "2025-12-21T22:41:41.853261+00:00", "meta": {"OBJECT_NAME": "COSMOS 2251 DEB", "OBJECT_ID": "1993-036RB", "EPOCH": "2025-12-21T03:07:22.254816", "MEAN_MOTION": 15.19644926, "ECCENTRICITY": 0.00215598, "INCLINATION": 73.7371, "RA_OF_ASC_NODE": 243.8514, "ARG_OF_PERICENTER": 83.8123, "MEAN_ANOMALY": 66.2153, "EPHEMERIS_TYPE": 0, "CLASSIFICATION_TYPE": "U", "NORAD_CAT_ID": 34410, "ELEMENT_SET_NO": 999, "REV_AT_EPOCH": 89901, "BSTAR": 0.0014959245, "MEAN_MOTION_DOT": 0.00032197, "MEAN_MOTION_DDOT": 0}, "tle": {"line1": "1 34410U 93036RB  25355.13011869  .00032197  00000+0  14959-2 0  9993", "line2": "2 34410  73.7371 243.8514 0021559  83.8123  66.2153 15.19644926899013"}}, "geometry": {"type": "Point", "coordinates": [-156.31547047645154, -64.84144259298513]}}, {"type": "Feature", "properties": {"norad_id": 34412, "name": "COSMOS 2251 DEB", "group": "cosmos-2251-debris", "lat": -48.111139066466045, "lon": 146.01918440197994, "alt_km": 872.277324881351, "timestamp": "2025-12-21T22:41:41.853271+00:00", "meta": {"OBJECT_NAME": "COSMOS 2251 DEB", "OBJECT_ID": "1993-036RD", "EPOCH": "2025-12-21T06:42:21.482784", "MEAN_MOTION": 14.47229294, "ECCENTRICITY": 0.01875477, "INCLINATION": 73.9486, "RA_OF_ASC_NODE": 308.5482, "ARG_OF_PERICENTER": 41.6351, "MEAN_ANOMALY": 319.8911, "EPHEMERIS_TYPE": 0, "CLASSIFICATION_TYPE": "U", "NORAD_CAT_ID": 34412, "ELEMENT_SET_NO": 999, "REV_AT_EPOCH": 87774, "BSTAR": 0.0012144064, "MEAN_MOTION_DOT": 5.508e-05, "MEAN_MOTION_DDOT": 0}, "tle": {"line1": "1 34412U 93036RD  25355.27941531  .00005508  00000+0  12144-2 0  9998", "line2": "2 34412  73.9486 308.5482 0187547  41.6351 319.8911 14.47229294877744"}}, "geometry": {"type": "Point", "coordinates": [146.01918440197994, -48.111139066466045]}}, {"type": "Feature", "properties": {"norad_id": 34413, "name": "COSMOS 2251 DEB", "group": "cosmos-2251-debris", "lat": 51.57863545430197, "lon": 46.99568502253252, "alt_km": 851.5563490307977, "timestamp": "2025-12-21T22:41:41.853281+00:00", "meta": {"OBJECT_NAME": "COSMOS 2251 DEB", "OBJECT_ID": "1993-036RE", "EPOCH": "2025-12-21T12:19:20.569728", "MEAN_MOTION": 14.29159266, "ECCENTRICITY": 0.00909701, "INCLINATION": 74.0305, "RA_OF_ASC_NODE": 248.9427, "ARG_OF_PERICENTER": 323.8103, "MEAN_ANOMALY": 98.506, "EPHEMERIS_TYPE": 0, "CLASSIFICATION_TYPE": "U", "NORAD_CAT_ID": 34413, "ELEMENT_SET_NO": 999, "REV_AT_EPOCH": 87256, "BSTAR": 0.0010501861, "MEAN_MOTION_DOT": 2.761e-05, "MEAN_MOTION_DDOT": 0}, "tle": {"line1": "1 34413U 93036RE  25355.51343252  .00002761  00000+0  10502-2 0  9996", "line2": "2 34413  74.0305 248.9427 0090970 323.8103  98.5060 14.29159266872568"}}, "geometry": {"type": "Point", "coordinates": [46.99568502253252, 51.57863545430197]}}, {"type": "Feature", "properties": {"norad_id": 34420, "name": "COSMOS 2251 DEB", "group": "cosmos-2251-debris", "lat": 67.64606515159278, "lon": 130.27698932194681, "alt_km": 708.0731758903903, "timestamp": "2025-12-21T22:41:41.853302+00:00", "meta": {"OBJECT_NAME": "COSMOS 2251 DEB", "OBJECT_ID": "1993-036RM", "EPOCH": "2025-12-21T12:36:54.442368", "MEAN_MOTION": 14.68321532, "ECCENTRICITY": 0.01062647, "INCLINATION": 74.0334, "RA_OF_ASC_NODE": 86.9648, "ARG_OF_PERICENTER": 206.0246, "MEAN_ANOMALY": 169.9386, "EPHEMERIS_TYPE": 0, "CLASSIFICATION_TYPE": "U", "NORAD_CAT_ID": 34420, "ELEMENT_SET_NO": 999, "REV_AT_EPOCH": 89899, "BSTAR": 0.00017878161, "MEAN_MOTION_DOT": 1.088e-05, "MEAN_MOTION_DDOT": 0}, "tle": {"line1": "1 34420U 93036RM  25355.52563012  .00001088  00000+0  17878-3 0  9998", "line2": "2 34420  74.0334  86.9648 0106264 206.0246 169.9386 14.68321532898996"}}, "geometry": {"type": "Point", "coordinates": [130.27698932194681, 67.64606515159278]}}, {"type": "Feature", "properties": {"norad_id": 34425, "name": "COSMOS 2251 DEB", "group": "cosmos-2251-debris", "lat": -39.40570188221071, "lon": 23.253023587060536, "alt_km": 708.2445802523007, "timestamp": "2025-12-21T22:41:41.853314+00:00", "meta": {"OBJECT_NAME": "COSMOS 2251 DEB", "OBJECT_ID": "1993-036RS", "EPOCH": "2025-12-21T06:27:49.476096", "MEAN_MOTION": 14.62170318, "ECCENTRICITY": 0.0024348, "INCLINATION": 74.0185, "RA_OF_ASC_NODE": 38.1671, "ARG_OF_PERICENTER": 162.2654, "MEAN_ANOMALY": 197.9368, "EPHEMERIS_TYPE": 0, "CLASSIFICATION_TYPE": "U", "NORAD_CAT_ID": 34425, "ELEMENT_SET_NO": 999, "REV_AT_EPOCH": 88865, "BSTAR": 0.00038687, "MEAN_MOTION_DOT": 1.925e-05, "MEAN_MOTION_DDOT": 0}, "tle": {"line1": "1 34425U 93036RS  25355.26932264  .00001925  00000+0  38687-3 0  9994", "line2": "2 34425  74.0185  38.1671 0024348 162.2654 197.9368 14.62170318888659"}}, "geometry": {"type": "Point", "coordinates": [23.253023587060536, -39.40570188221071]}}, {"type": "Feature", "properties": {"norad_id": 34429, "name": "COSMOS 2251 DEB", "group": "cosmos-2251-debris", "lat": -7.195209713979124, "lon": -29.987336824760014, "alt_km": 441.7241658841158, "timestamp": "2025-12-21T22:41:41.853325+00:00", "meta": {"OBJECT_NAME": "COSMOS 2251 DEB", "OBJECT_ID": "1993-036RW", "EPOCH": "2025-12-21T12:51:11.151936", "MEAN_MOTION": 15.45035784, "ECCENTRICITY": 0.0011371, "INCLINATION": 73.9681, "RA_OF_ASC_NODE": 148.8286, "ARG_OF_PERICENTER": 349.9572, "MEAN_ANOMALY": 77.4219, "EPHEMERIS_TYPE": 0, "CLASSIFICATION_TYPE": "U", "NORAD_CAT_ID": 34429, "ELEMENT_SET_NO": 999, "REV_AT_EPOCH": 89584, "BSTAR": 0.0045787021, "MEAN_MOTION_DOT": 0.00223012, "MEAN_MOTION_DDOT": 0}, "tle": {"line1": "1 34429U 93036RW  25355.53554574  .00223012  00000+0  45787-2 0  9993", "line2": "2 34429  73.9681 148.8286 0011371 349.9572  77.4219 15.45035784895843"}}, "geometry": {"type": "Point", "coordinates": [-29.987336824760014, -7.195209713979124]}}, {"type": "Feature", "properties": {"norad_id": 34430, "name": "COSMOS 2251 DEB", "group": "cosmos-2251-debris", "lat": 68.59805823185269, "lon": -26.77080293664252, "alt_km": 746.1083559633089, "timestamp": "2025-12-21T22:41:41.853335+00:00", "meta": {"OBJECT_NAME": "COSMOS 2251 DEB", "OBJECT_ID": "1993-036RX", "EPOCH": "2025-12-21T05:40:15.366144", "MEAN_MOTION": 14.39656324, "ECCENTRICITY": 0.0060747, "INCLINATION": 74.0518, "RA_OF_ASC_NODE": 287.6852, "ARG_OF_PERICENTER": 355.3377, "MEAN_ANOMALY": 4.7203, "EPHEMERIS_TYPE": 0, "CLASSIFICATION_TYPE": "U", "NORAD_CAT_ID": 34430, "ELEMENT_SET_NO": 999, "REV_AT_EPOCH": 88077, "BSTAR": 0.00036784704, "MEAN_MOTION_DOT": 1.149e-05, "MEAN_MOTION_DDOT": 0}, "tle": {"line1": "1 34430U 93036RX  25355.23628896  .00001149  00000+0  36785-3 0  9995", "line2": "2 34430  74.0518 287.6852 0060747 355.3377   4.7203 14.39656324880775"}}, "geometry": {"type": "Point", "coordinates": [-26.77080293664252, 68.59805823185269]}}, {"type": "Feature", "properties": {"norad_id": 34431, "name": "COSMOS 2251 DEB", "group": "cosmos-2251-debris", "lat": -22.19960410508428, "lon": 151.84436169973188, "alt_km": 847.7552741785603, "timestamp": "2025-12-21T22:41:41.853345+00:00", "meta": {"OBJECT_NAME": "COSMOS 2251 DEB", "OBJECT_ID": "1993-036RY", "EPOCH": "2025-12-21T12:43:18.618240", "MEAN_MOTION": 14.28802014, "ECCENTRICITY": 0.00679507, "INCLINATION": 74.0738, "RA_OF_ASC_NODE": 159.2878, "ARG_OF_PERICENTER": 142.6332, "MEAN_ANOMALY": 217.9573, "EPHEMERIS_TYPE": 0, "CLASSIFICATION_TYPE": "U", "NORAD_CAT_ID": 34431, "ELEMENT_SET_NO": 999, "REV_AT_EPOCH": 87268, "BSTAR": 0.00055125396, "MEAN_MOTION_DOT": 1.399e-05, "MEAN_MOTION_DDOT": 0}, "tle": {"line1": "1 34431U 93036RY  25355.53007660  .00001399  00000+0  55125-3 0  9995", "line2": "2 34431  74.0738 159.2878 0067950 142.6332 217.9573 14.28802014872689"}}, "geometry": {"type": "Point", "coordinates": [151.84436169973188, -22.19960410508428]}}]}